{
"type": "FeatureCollection",
"name": "propiedades",
"crs": { "type": "name", "properties": { "name": "urn:ogc:def:crs:OGC:1.3:CRS84" } },
"features": [
{ "type": "Feature", "properties": { "Code": "T001" }, "geometry": { "type": "Polygon", "coordinates": [ [ [ -86.130277110749489, 12.010769883718568 ], [ -86.130043324139535, 12.010600499464621 ], [ -86.130249691332295, 12.010265965250088 ], [ -86.13048925045112, 12.010473461204246 ], [ -86.130277110749489, 12.010769883718568 ] ] ] } },
{ "type": "Feature", "properties": { "Code": "C001" }, "geometry": { "type": "Polygon", "coordinates": [ [ [ -86.215107015109197, 12.007798586141684 ], [ -86.215031972493662, 12.007799997692256 ], [ -86.215030529366445, 12.007737889460012 ], [ -86.215108458236415, 12.007737889460012 ], [ -86.215107015109197, 12.007798586141684 ] ] ] } },
{ "type": "Feature", "properties": { "Code": "C002" }, "geometry": { "type": "Polygon", "coordinates": [ [ [ -86.210468804217882, 12.022811419548059 ], [ -86.210387989093462, 12.02289046196063 ], [ -86.210310060223478, 12.022879170188826 ], [ -86.210260993897904, 12.022791658941292 ], [ -86.210278311424588, 12.022647688762433 ], [ -86.210480349235652, 12.022673095270186 ], [ -86.210468804217882, 12.022811419548059 ] ] ] } }
]
}
